{
  "norad_id": 63243,
  "name": "HERMES-2",
  "history": [
    {
      "epoch": "2026-03-28T15:44:01.051872Z",
      "apogee_km": 484.828011170187,
      "perigee_km": 476.7207779018454,
      "latitude_deg": 1.0140095747486712e-05,
      "longitude_deg": -78.98767698030063,
      "height_km": 481.40576988106653,
      "semi_major_axis_km": 6858.911394536016,
      "eccentricity": 0.000591,
      "inclination_deg": 97.3986,
      "raan_deg": 343.0896,
      "arg_perigee_deg": 52.611,
      "mean_anomaly_deg": 307.5667,
      "mean_motion_rev_day": 15.28339977
    }
  ]
}