{"fetched_at":"2026-03-30T13:17:50Z","count":15418,"tles":[{"name":"HERMES-2","line1":"1 63243U 25052AK  26087.65556773  .00009523  00000+0  34749-3 0  9997","line2":"2 63243  97.3986 343.0896 0005910  52.6110 307.5667 15.28339977 57713","category":"Other"}]}